IRIDIUM 63              
1 25286U 98021B   25252.87913909  .00000423  00000+0  13734-3 0  9994
2 25286  86.3962  46.5735 0002137  85.7183 274.4259 14.36606630436005
IRIDIUM 69              
1 25319U 98026A   25252.97885918  .00000394  00000+0  11626-3 0  9990
2 25319  86.3933  59.5605 0004465  97.5246 262.6461 14.41040578435278
IRIDIUM 71              
1 25320U 98026B   25252.97480335  .00000405  00000+0  11920-3 0  9996
2 25320  86.3940  54.2397 0003363 127.8038 232.3467 14.41221933435805
IRIDIUM 73              
1 25344U 98032C   25252.84141548  .00000612  00000+0  14719-3 0  9994
2 25344  86.4463  10.8567 0002818  86.4853 273.6675 14.51809438442842
IRIDIUM 82              
1 25467U 98051A   25252.89522254  .00021614  00000+0  55109-3 0  9996
2 25467  86.3605  67.9398 0077108 335.2835  24.4729 15.36308772436944
